[
  {
    "COMMENT": "GENERATED VIA SPACETRACK.ORG API",
    "ORIGINATOR": "18 SPCS",
    "NORAD_CAT_ID": "36508",
    "OBJECT_NAME": "CRYOSAT 2",
    "OBJECT_TYPE": "PAYLOAD",
    "CLASSIFICATION_TYPE": "U",
    "INTLDES": "10013A",
    "EPOCH": "2023-04-08 05:32:28",
    "EPOCH_MICROSECONDS": "373280",
    "MEAN_MOTION": "14.51899563",
    "ECCENTRICITY": "0.0003424",
    "INCLINATION": "92.0288",
    "RA_OF_ASC_NODE": "355.5011",
    "ARG_OF_PERICENTER": "3.3593",
    "MEAN_ANOMALY": "356.7637",
    "EPHEMERIS_TYPE": "0",
    "ELEMENT_SET_NO": "999",
    "REV_AT_EPOCH": "68894",
    "BSTAR": "0.000076121",
    "MEAN_MOTION_DOT": "0.00000309",
    "MEAN_MOTION_DDOT": "0",
    "FILE": "3883164",
    "TLE_LINE0": "0 CRYOSAT 2",
    "TLE_LINE1": "1 36508U 10013A   23098.23088395  .00000309  00000-0  76121-4 0  9990",
    "TLE_LINE2": "2 36508  92.0288 355.5011 0003424   3.3593 356.7637 14.51899563688942",
    "OBJECT_ID": "2010-013A",
    "OBJECT_NUMBER": "36508",
    "SEMIMAJOR_AXIS": "7097.588",
    "PERIOD": "99.180",
    "APOGEE": "721.883",
    "PERIGEE": "717.023",
    "DECAYED": "0"
  },
  {
    "COMMENT": "GENERATED VIA SPACETRACK.ORG API",
    "ORIGINATOR": "18 SPCS",
    "NORAD_CAT_ID": "36508",
    "OBJECT_NAME": "CRYOSAT 2",
    "OBJECT_TYPE": "PAYLOAD",
    "CLASSIFICATION_TYPE": "U",
    "INTLDES": "10013A",
    "EPOCH": "2023-04-08 13:48:41",
    "EPOCH_MICROSECONDS": "867712",
    "MEAN_MOTION": "14.5189976",
    "ECCENTRICITY": "0.0003371",
    "INCLINATION": "92.0287",
    "RA_OF_ASC_NODE": "355.5846",
    "ARG_OF_PERICENTER": "2.2368",
    "MEAN_ANOMALY": "357.8854",
    "EPHEMERIS_TYPE": "0",
    "ELEMENT_SET_NO": "999",
    "REV_AT_EPOCH": "68895",
    "BSTAR": "0.000074559",
    "MEAN_MOTION_DOT": "0.00000303",
    "MEAN_MOTION_DDOT": "0",
    "FILE": "3883527",
    "TLE_LINE0": "0 CRYOSAT 2",
    "TLE_LINE1": "1 36508U 10013A   23098.57548458  .00000303  00000-0  74559-4 0  9995",
    "TLE_LINE2": "2 36508  92.0287 355.5846 0003371   2.2368 357.8854 14.51899760688959",
    "OBJECT_ID": "2010-013A",
    "OBJECT_NUMBER": "36508",
    "SEMIMAJOR_AXIS": "7097.587",
    "PERIOD": "99.180",
    "APOGEE": "721.845",
    "PERIGEE": "717.060",
    "DECAYED": "0"
  },
  {
    "COMMENT": "GENERATED VIA SPACETRACK.ORG API",
    "ORIGINATOR": "18 SPCS",
    "NORAD_CAT_ID": "36508",
    "OBJECT_NAME": "CRYOSAT 2",
    "OBJECT_TYPE": "PAYLOAD",
    "CLASSIFICATION_TYPE": "U",
    "INTLDES": "10013A",
    "EPOCH": "2023-04-09 06:21:08",
    "EPOCH_MICROSECONDS": "851392",
    "MEAN_MOTION": "14.51900081",
    "ECCENTRICITY": "0.0003276",
    "INCLINATION": "92.0286",
    "RA_OF_ASC_NODE": "355.7515",
    "ARG_OF_PERICENTER": "359.9255",
    "MEAN_ANOMALY": "0.1951",
    "EPHEMERIS_TYPE": "0",
    "ELEMENT_SET_NO": "999",
    "REV_AT_EPOCH": "68909",
    "BSTAR": "0.000063919",
    "MEAN_MOTION_DOT": "0.0000026",
    "MEAN_MOTION_DDOT": "0",
    "FILE": "3884049",
    "TLE_LINE0": "0 CRYOSAT 2",
    "TLE_LINE1": "1 36508U 10013A   23099.26468578  .00000260  00000-0  63919-4 0  9996",
    "TLE_LINE2": "2 36508  92.0286 355.7515 0003276 359.9255   0.1951 14.51900081689095",
    "OBJECT_ID": "2010-013A",
    "OBJECT_NUMBER": "36508",
    "SEMIMAJOR_AXIS": "7097.586",
    "PERIOD": "99.180",
    "APOGEE": "721.777",
    "PERIGEE": "717.126",
    "DECAYED": "0"
  },
  {
    "COMMENT": "GENERATED VIA SPACETRACK.ORG API",
    "ORIGINATOR": "18 SPCS",
    "NORAD_CAT_ID": "36508",
    "OBJECT_NAME": "CRYOSAT 2",
    "OBJECT_TYPE": "PAYLOAD",
    "CLASSIFICATION_TYPE": "U",
    "INTLDES": "10013A",
    "EPOCH": "2023-04-09 12:58:07",
    "EPOCH_MICROSECONDS": "644000",
    "MEAN_MOTION": "14.51900097",
    "ECCENTRICITY": "0.0003235",
    "INCLINATION": "92.0285",
    "RA_OF_ASC_NODE": "355.8182",
    "ARG_OF_PERICENTER": "358.9625",
    "MEAN_ANOMALY": "1.1575",
    "EPHEMERIS_TYPE": "0",
    "ELEMENT_SET_NO": "999",
    "REV_AT_EPOCH": "68909",
    "BSTAR": "0.000057824",
    "MEAN_MOTION_DOT": "0.00000236",
    "MEAN_MOTION_DDOT": "0",
    "FILE": "3884332",
    "TLE_LINE0": "0 CRYOSAT 2",
    "TLE_LINE1": "1 36508U 10013A   23099.54036625  .00000236  00000-0  57824-4 0  9992",
    "TLE_LINE2": "2 36508  92.0285 355.8182 0003235 358.9625   1.1575 14.51900097689090",
    "OBJECT_ID": "2010-013A",
    "OBJECT_NUMBER": "36508",
    "SEMIMAJOR_AXIS": "7097.586",
    "PERIOD": "99.180",
    "APOGEE": "721.747",
    "PERIGEE": "717.155",
    "DECAYED": "0"
  },
  {
    "COMMENT": "GENERATED VIA SPACETRACK.ORG API",
    "ORIGINATOR": "18 SPCS",
    "NORAD_CAT_ID": "36508",
    "OBJECT_NAME": "CRYOSAT 2",
    "OBJECT_TYPE": "PAYLOAD",
    "CLASSIFICATION_TYPE": "U",
    "INTLDES": "10013A",
    "EPOCH": "2023-04-09 22:53:35",
    "EPOCH_MICROSECONDS": "823840",
    "MEAN_MOTION": "14.51900387",
    "ECCENTRICITY": "0.0003179",
    "INCLINATION": "92.0285",
    "RA_OF_ASC_NODE": "355.9184",
    "ARG_OF_PERICENTER": "357.5982",
    "MEAN_ANOMALY": "2.521",
    "EPHEMERIS_TYPE": "0",
    "ELEMENT_SET_NO": "999",
    "REV_AT_EPOCH": "68915",
    "BSTAR": "0.000060094",
    "MEAN_MOTION_DOT": "0.00000245",
    "MEAN_MOTION_DDOT": "0",
    "FILE": "3884641",
    "TLE_LINE0": "0 CRYOSAT 2",
    "TLE_LINE1": "1 36508U 10013A   23099.95388685  .00000245  00000-0  60094-4 0  9996",
    "TLE_LINE2": "2 36508  92.0285 355.9184 0003179 357.5982   2.5210 14.51900387689151",
    "OBJECT_ID": "2010-013A",
    "OBJECT_NUMBER": "36508",
    "SEMIMAJOR_AXIS": "7097.585",
    "PERIOD": "99.180",
    "APOGEE": "721.707",
    "PERIGEE": "717.194",
    "DECAYED": "0"
  },
  {
    "COMMENT": "GENERATED VIA SPACETRACK.ORG API",
    "ORIGINATOR": "18 SPCS",
    "NORAD_CAT_ID": "36508",
    "OBJECT_NAME": "CRYOSAT 2",
    "OBJECT_TYPE": "PAYLOAD",
    "CLASSIFICATION_TYPE": "U",
    "INTLDES": "10013A",
    "EPOCH": "2023-04-10 08:49:04",
    "EPOCH_MICROSECONDS": "1088",
    "MEAN_MOTION": "14.51900681",
    "ECCENTRICITY": "0.0003121",
    "INCLINATION": "92.0284",
    "RA_OF_ASC_NODE": "356.0185",
    "ARG_OF_PERICENTER": "356.1404",
    "MEAN_ANOMALY": "3.9779",
    "EPHEMERIS_TYPE": "0",
    "ELEMENT_SET_NO": "999",
    "REV_AT_EPOCH": "68925",
    "BSTAR": "0.000063189",
    "MEAN_MOTION_DOT": "0.00000257",
    "MEAN_MOTION_DDOT": "0",
    "FILE": "3884944",
    "TLE_LINE0": "0 CRYOSAT 2",
    "TLE_LINE1": "1 36508U 10013A   23100.36740742  .00000257  00000-0  63189-4 0  9991",
    "TLE_LINE2": "2 36508  92.0284 356.0185 0003121 356.1404   3.9779 14.51900681689257",
    "OBJECT_ID": "2010-013A",
    "OBJECT_NUMBER": "36508",
    "SEMIMAJOR_AXIS": "7097.584",
    "PERIOD": "99.180",
    "APOGEE": "721.665",
    "PERIGEE": "717.234",
    "DECAYED": "0"
  },
  {
    "COMMENT": "GENERATED VIA SPACETRACK.ORG API",
    "ORIGINATOR": "18 SPCS",
    "NORAD_CAT_ID": "36508",
    "OBJECT_NAME": "CRYOSAT 2",
    "OBJECT_TYPE": "PAYLOAD",
    "CLASSIFICATION_TYPE": "U",
    "INTLDES": "10013A",
    "EPOCH": "2023-04-10 13:46:48",
    "EPOCH_MICROSECONDS": "78912",
    "MEAN_MOTION": "14.51900842",
    "ECCENTRICITY": "0.0003084",
    "INCLINATION": "92.0283",
    "RA_OF_ASC_NODE": "356.0686",
    "ARG_OF_PERICENTER": "355.4484",
    "MEAN_ANOMALY": "4.6695",
    "EPHEMERIS_TYPE": "0",
    "ELEMENT_SET_NO": "999",
    "REV_AT_EPOCH": "68924",
    "BSTAR": "0.000063763",
    "MEAN_MOTION_DOT": "0.0000026",
    "MEAN_MOTION_DDOT": "0",
    "FILE": "3885195",
    "TLE_LINE0": "0 CRYOSAT 2",
    "TLE_LINE1": "1 36508U 10013A   23100.57416758  .00000260  00000-0  63763-4 0  9993",
    "TLE_LINE2": "2 36508  92.0283 356.0686 0003084 355.4484   4.6695 14.51900842689243",
    "OBJECT_ID": "2010-013A",
    "OBJECT_NUMBER": "36508",
    "SEMIMAJOR_AXIS": "7097.584",
    "PERIOD": "99.180",
    "APOGEE": "721.638",
    "PERIGEE": "717.260",
    "DECAYED": "0"
  },
  {
    "COMMENT": "GENERATED VIA SPACETRACK.ORG API",
    "ORIGINATOR": "18 SPCS",
    "NORAD_CAT_ID": "36508",
    "OBJECT_NAME": "CRYOSAT 2",
    "OBJECT_TYPE": "PAYLOAD",
    "CLASSIFICATION_TYPE": "U",
    "INTLDES": "10013A",
    "EPOCH": "2023-04-10 20:23:46",
    "EPOCH_MICROSECONDS": "858560",
    "MEAN_MOTION": "14.51900902",
    "ECCENTRICITY": "0.000305",
    "INCLINATION": "92.0283",
    "RA_OF_ASC_NODE": "356.1353",
    "ARG_OF_PERICENTER": "354.4661",
    "MEAN_ANOMALY": "5.6512",
    "EPHEMERIS_TYPE": "0",
    "ELEMENT_SET_NO": "999",
    "REV_AT_EPOCH": "68928",
    "BSTAR": "0.00005892",
    "MEAN_MOTION_DOT": "0.0000024",
    "MEAN_MOTION_DDOT": "0",
    "FILE": "3885363",
    "TLE_LINE0": "0 CRYOSAT 2",
    "TLE_LINE1": "1 36508U 10013A   23100.84984790  .00000240  00000-0  58920-4 0  9996",
    "TLE_LINE2": "2 36508  92.0283 356.1353 0003050 354.4661   5.6512 14.51900902689284",
    "OBJECT_ID": "2010-013A",
    "OBJECT_NUMBER": "36508",
    "SEMIMAJOR_AXIS": "7097.584",
    "PERIOD": "99.180",
    "APOGEE": "721.613",
    "PERIGEE": "717.284",
    "DECAYED": "0"
  },
  {
    "COMMENT": "GENERATED VIA SPACETRACK.ORG API",
    "ORIGINATOR": "18 SPCS",
    "NORAD_CAT_ID": "36508",
    "OBJECT_NAME": "CRYOSAT 2",
    "OBJECT_TYPE": "PAYLOAD",
    "CLASSIFICATION_TYPE": "U",
    "INTLDES": "10013A",
    "EPOCH": "2023-04-11 12:56:13",
    "EPOCH_MICROSECONDS": "796448",
    "MEAN_MOTION": "14.51901313",
    "ECCENTRICITY": "0.0002947",
    "INCLINATION": "92.0282",
    "RA_OF_ASC_NODE": "356.3022",
    "ARG_OF_PERICENTER": "351.9907",
    "MEAN_ANOMALY": "8.1252",
    "EPHEMERIS_TYPE": "0",
    "ELEMENT_SET_NO": "999",
    "REV_AT_EPOCH": "68942",
    "BSTAR": "0.000060749",
    "MEAN_MOTION_DOT": "0.00000248",
    "MEAN_MOTION_DDOT": "0",
    "FILE": "3885763",
    "TLE_LINE0": "0 CRYOSAT 2",
    "TLE_LINE1": "1 36508U 10013A   23101.53904857  .00000248  00000-0  60749-4 0  9999",
    "TLE_LINE2": "2 36508  92.0282 356.3022 0002947 351.9907   8.1252 14.51901313689429",
    "OBJECT_ID": "2010-013A",
    "OBJECT_NUMBER": "36508",
    "SEMIMAJOR_AXIS": "7097.582",
    "PERIOD": "99.180",
    "APOGEE": "721.539",
    "PERIGEE": "717.356",
    "DECAYED": "0"
  }
]